#cP2011  6 29  0  0  0.00000000      96 ORBIT IGS08 HLM  IGS
## 1642 259200.00000000   900.00000000 55741 0.0000000000000
+   32   G01G02G03G04G05G06G07G08G09G10G11G12G13G14G15G16G17
+        G18G19G20G21G22G23G24G25G26G27G28G29G30G31G32  0  0
+          0  0  0  0  0  0  0  0  0  0  0  0  0  0  0  0  0
+          0  0  0  0  0  0  0  0  0  0  0  0  0  0  0  0  0
+          0  0  0  0  0  0  0  0  0  0  0  0  0  0  0  0  0
++         0  2  2  2  2  2  2  2  2  2  2  2  2  3  2  2  2
++         2  2  2  2  2  2  2  2  2  2  2  2  3  2  2  0  0
++         0  0  0  0  0  0  0  0  0  0  0  0  0  0  0  0  0
++         0  0  0  0  0  0  0  0  0  0  0  0  0  0  0  0  0
++         0  0  0  0  0  0  0  0  0  0  0  0  0  0  0  0  0
%c G  cc GPS ccc cccc cccc cccc cccc ccccc ccccc ccccc ccccc
%c cc cc ccc ccc cccc cccc cccc cccc ccccc ccccc ccccc ccccc
%f  1.2500000  1.025000000  0.00000000000  0.000000000000000
%f  0.0000000  0.000000000  0.00000000000  0.000000000000000
%i    0    0    0    0      0      0      0      0         0
%i    0    0    0    0      0      0      0      0         0
/* FINAL ORBIT COMBINATION FROM WEIGHTED AVERAGE OF:        
/* cod emr esa gfz grg jpl mit ngs sio                      
/* REFERENCED TO IGS TIME (IGST) AND TO WEIGHTED MEAN POLE: 
/* PCV:IGS08_1643 OL/AL:FES2004  NONE     Y  ORB:CMB CLK:CMB
*  2011  6 29 21  0  0.00000000
PG01  -5422.381246  14698.062843 -21810.880187 999999.999999
PG02 -21493.846214  11352.360081 -10043.121774    344.194470  5  4  8 109       
PG03  14596.839659  -5756.356507  21005.320867    735.359724  6  6  6 111       
PG04 -18562.373342  -1591.965969 -19260.800153    158.175280  6  4  7 130       
PG05 -22917.993687   3318.078768  13089.577128   -182.116321  8  7  4 129       
PG06  16195.847949   -607.510563  21221.300960     97.911448  6  6  5 114       
PG07  -2440.676617 -16830.003797  20342.832335     16.074860  8  8  5 142       
PG08 -10969.808681  -9619.740295  22246.728219      8.348494  6  5  4 122       
PG09 -13717.819323  21524.466610  -7911.937459     89.553554  7  6  5 105       
PG10 -25070.048894  -9165.866259  -2177.000880     -5.184319  5  6  6 132       
PG11  11645.259704 -23560.296072  -2551.487735   -163.792021  6  5  5 137       
PG12  -6036.056305  13683.945500 -21925.667952      5.820596  8  6  3 128       
PG13  -4366.153771 -26158.600746   -239.456815    263.352511  7  7  8 133       
PG14  13923.022262  16151.824712 -15766.830719    158.853700 10  8 11 140       
PG15  -6657.557643  19737.053193  16389.629873   -118.683279  5  5  4 150       
PG16  23029.324533  -2175.982538  13344.848404   -182.254831  4  7  6 113       
PG17 -14780.489510 -15456.908873 -15753.245482    183.096551  5  5  7 124       
PG18  15008.946480  16237.713415  15304.129840    144.716248  5  7  5 128       
PG19  10060.580935 -16466.134139  18082.773527   -156.714903  6  5  6 142       
PG20   2869.355284 -15634.182972 -21422.864773     50.282076  6  6  4 140       
PG21   6122.859443  15668.841306  20866.506559   -154.534504  5  5  5 118       
PG22  23729.630678  11026.765511   5074.613670    146.870165  7  8  6 107       
PG23   1850.638771 -23976.643260 -10865.831285    295.544228  8  5  7 129       
PG24  12302.857582 -20878.036653 -10469.444672    402.557041  6  6  6  97       
PG25   7880.308904  16131.090234 -19606.622684      6.537848  8  5  6 148       
PG26 -12841.601198   7860.084435  21232.063658 999999.999999
PG27 -17651.957520  19550.888802   -585.384324    279.866031  6  7  6  94       
PG28 -21561.381689 -13314.130763   8894.880445     48.331242  8  5  5 112       
PG29   4439.950761  26148.937911  -1768.027642    219.224734  7  7  7 104       
PG30  26032.612997   3427.476938   3661.537475     17.636529  7  6  5 139       
PG31  19258.409764  -1650.047409 -18113.601872    103.255355  7  4  8  89       
PG32  11856.245989 -11156.412005 -20628.912813 999999.999999
*  2011  6 29 21 15  0.00000000
PG01  -7787.100335  14327.504406 -21324.457082 999999.999999
PG02 -20827.156368  10178.152329 -12452.877713    344.196139  5  4  8 122       
PG03  15588.926638  -3469.085263  20826.300128    735.364960  6  6  6 121       
PG04 -17104.057857  -3274.417237 -20348.205589    158.185120  7  4  6 124       
PG05 -24190.319795   2783.395438  10721.566142   -182.121442  8  7  5 129       
PG06  16928.227902   1643.449524  20602.300321     97.836574  5  6  5 121       
PG07   -792.589606 -18377.146187  19076.763765     16.076140  8  8  5 144       
PG08  -9059.537463 -11283.088625  22276.729306      8.348126  6  5  4 122       
PG09 -14305.208604  21907.281677  -5140.346881     89.555807  7  6  5  98       
PG10 -24637.102761  -9314.465257  -4949.090926     -5.185244  5  6  6 134       
PG11  12121.643783 -23418.385924    164.943979   -163.795045  6  5  5 140       
PG12  -8432.779972  13021.030160 -21519.801459      5.823154  8  6  3 119       
PG13  -4156.705186 -26020.488953  -3147.303008    263.350854  8  5  8 132       
PG14  14171.952899  17836.839736 -13616.245288    158.855836 11  9 11 132       
PG15  -7425.345097  17902.277660  18093.931240   -118.681477  5  6  4 151       
PG16  24311.743798  -1656.842493  10951.406295   -182.256997  6  7  5 114       
PG17 -15038.852264 -17143.463159 -13662.242286    183.095984  5  6  7 110       
PG18  13222.313595  15971.601824  17127.049271    144.718168  5  7  4 130       
PG19  10638.859121 -14375.249378  19510.906665   -156.718424  5  5  6 141       
PG20   5244.315279 -15140.268919 -21321.564604     50.282365  7  6  5 125       
PG21   4448.336981  17215.945458  19981.632728   -154.537007  4  5  5 110       
PG22  22959.537980  11148.856766   7733.607745    146.869561  7  8  6 108       
PG23   2447.435667 -22697.772146 -13263.505588    295.541717  8  5  7 128       
PG24  13276.630574 -21401.629834  -7896.730101    402.560782  6  6  6 119       
PG25   5618.328882  15707.323276 -20697.777605      6.539665  8  5  6 144       
PG26 -13422.863937   5343.891928  21673.618527 999999.999999
PG27 -17801.278705  19381.928926   2328.852035    279.869715  5  7  6  89       
PG28 -20472.428039 -13169.082445  11444.185440     48.333558  8  6  5  90       
PG29   4109.709007  25848.949062  -4592.560852    219.227394  7  7  7  90       
PG30  26279.254876   3735.055869    821.062621     17.642148  8  5  6 134       
PG31  17804.923263    -17.883115 -19580.798518    103.260769  7  4  8  96       
PG32  14067.089652 -10289.661462 -19643.140569 999999.999999
*  2011  6 29 21 30  0.00000000
PG01 -10095.548914  14086.645226 -20482.628739 999999.999999
PG02 -20050.612213   8772.527489 -14642.280874    344.197796  6  4  8 117       
PG03  16664.561899  -1270.662149  20275.878035    735.369613  6  6  5 125       
PG04 -15662.918506  -5106.483270 -21094.103501    158.194706  7  4  6 122       
PG05 -25214.730796   2363.913270   8169.974921   -182.126492  8  7  5 127       
PG06  17734.713339   3772.529727  19634.919779     97.761552  5  6  4 120       
PG07    664.791523 -19888.684452  17480.213532     16.077101  8  8  5 141       
PG08  -7257.368379 -13044.644690  21923.589488      8.347896  6  6  4 127       
PG09 -14674.334209  22074.098191  -2281.365628     89.558891  7  7  6  96       
PG10 -23913.747700  -9422.891494  -7638.270650     -5.186705  4  6  6 132       
PG11  12472.282289 -23019.248578   2878.444601   -163.798008  6  5  5 138       
PG12 -10797.653532  12501.960407 -20742.328553      5.824983  8  5  4 128       
PG13  -3855.182785 -25578.356920  -6000.855249    263.349263  8  4  8 129       
PG14  14441.166849  19256.528115 -11230.794739    158.857625 12  9 11 125       
PG15  -8345.689267  15945.422646  19485.266403   -118.679391  5  6  4 154       
PG16  25346.701357  -1269.073763   8372.742543   -182.259643  7  7  5 100       
PG17 -15308.377185 -18574.497385 -11336.733301    183.095613  6  6  8 127       
PG18  11241.484816  15756.709591  18666.026664    144.720259  4  7  4 126       
PG19  11359.305484 -12181.261016  20599.769985   -156.722123  4  5  6 143       
PG20   7609.699315 -14765.436368 -20857.929434     50.282818  6  6  5 132       
PG21   2920.931364  18757.098483  18760.105849   -154.539536  4  5  4 109       
PG22  21911.972313  11248.604461  10261.128048    146.869108  7  7  6 107       
PG23   3193.893139 -21206.691815 -15428.829162    295.538894  8  5  7 120       
PG24  14016.819847 -21754.158806  -5185.534466    402.563918  6  6  6 121       
PG25   3235.050725  15386.537472 -21433.720038      6.541446  8  5  6 146       
PG26 -14146.768012   2838.848234  21719.868542 999999.999999
PG27 -17754.108071  18963.649028   5202.431434    279.872421  5  7  6  88       
PG28 -19112.739506 -13023.146371  13803.875965     48.336080  7  6  5 114       
PG29   3668.417014  25266.093072  -7338.160535    219.230360  7  7  7  81       
PG30  26222.307850   3981.870949  -2033.594790     17.646609  8  5  8 140       
PG31  16345.140978   1805.965880 -20707.430901    103.266240  7  4  8  81       
PG32  16192.057613  -9568.749741 -18307.698055 999999.999999
EOF
